NORAD_CAT_ID,OBJECT_NAME,OBJECT_TYPE,EPOCH,MEAN_MOTION,ECCENTRICITY,INCLINATION,RA_OF_ASC_NODE,ARG_OF_PERICENTER,MEAN_ANOMALY,BSTAR,MEAN_MOTION_DOT,MEAN_MOTION_DDOT,TLE_LINE0,TLE_LINE1,TLE_LINE2,SEMIMAJOR_AXIS,PERIOD,APOGEE,PERIGEE,DECAYED
56451.0,STARLINK-5985,PAYLOAD,2023-12-16 13:32:06,14.98334039,0.0003248,69.9998,37.3334,263.423,96.656,6.3398e-05,6.64e-06,0.0,0 STARLINK-5985,1 56451U 23064D   23350.56396093  .00000664  00000-0  63398-4 0  9999,2 56451  69.9998  37.3334 0003248 263.4230  96.6560 14.98334039 33296,6950.18,96.107,574.303,569.788,0.0
56451.0,STARLINK-5985,PAYLOAD,2023-12-17 11:57:57,14.98343782,0.000316,69.9999,34.9757,268.7983,91.2814,0.00017224,1.963e-05,0.0,0 STARLINK-5985,1 56451U 23064D   23351.49858718  .00001963  00000-0  17224-3 0  9998,2 56451  69.9999  34.9757 0003160 268.7983  91.2814 14.98343782 33798,6950.15,96.106,574.212,569.819,0.0
56451.0,STARLINK-5985,PAYLOAD,2023-12-17 13:34:05,14.98345918,0.0003155,70.0,34.808,268.4883,91.5914,0.0001905,2.182e-05,0.0,0 STARLINK-5985,1 56451U 23064D   23351.56534466  .00002182  00000-0  19050-3 0  9990,2 56451  70.0000  34.8080 0003155 268.4883  91.5914 14.98345918 33441,6950.144,96.106,574.201,569.816,0.0
56451.0,STARLINK-5985,PAYLOAD,2023-12-18 03:59:19,14.98332286,0.0002663,70.0028,33.2964,244.1702,115.9183,2.0692e-05,1.54e-06,0.0,0 STARLINK-5985,1 56451U 23064D   23352.16619461  .00000154  00000-0  20692-4 0  9998,2 56451  70.0028  33.2964 0002663 244.1702 115.9183 14.98332286 33891,6950.186,96.107,573.902,570.2,0.0
56451.0,STARLINK-5985,PAYLOAD,2023-12-18 11:59:59,14.98331462,0.0003304,69.9997,32.452,260.4625,99.6161,-6.7043e-05,-8.93e-06,0.0,0 STARLINK-5985,1 56451U 23064D   23352.49999654 -.00000893  00000-0 -67043-4 0  9992,2 56451  69.9997  32.4520 0003304 260.4625  99.6161 14.98331462 33585,6950.188,96.107,574.35,569.757,0.0
56451.0,STARLINK-5985,PAYLOAD,2023-12-19 04:01:20,14.98331357,0.0002962,70.0005,30.7699,257.4735,102.6093,-0.00019125,-2.374e-05,0.0,0 STARLINK-5985,1 56451U 23064D   23353.16760034 -.00002374  00000-0 -19125-3 0  9998,2 56451  70.0005  30.7699 0002962 257.4735 102.6093 14.98331357 34047,6950.189,96.107,574.112,569.995,0.0
56451.0,STARLINK-5985,PAYLOAD,2023-12-19 12:02:00,14.98331398,0.0003002,70.0003,29.9284,251.7961,108.2872,-0.00019426,-2.41e-05,0.0,0 STARLINK-5985,1 56451U 23064D   23353.50140002 -.00002410  00000-0 -19426-3 0  9998,2 56451  70.0003  29.9284 0003002 251.7961 108.2872 14.98331398 33736,6950.189,96.107,574.14,569.967,0.0
56451.0,STARLINK-5985,PAYLOAD,2023-12-20 04:03:21,14.98321144,0.0002942,70.0004,28.2444,254.7431,105.3403,3.0962e-05,2.76e-06,0.0,0 STARLINK-5985,1 56451U 23064D   23354.16900171  .00000276  00000-0  30962-4 0  9997,2 56451  70.0004  28.2444 0002942 254.7431 105.3403 14.98321144 34191,6950.22,96.108,574.13,570.041,0.0
56451.0,STARLINK-5985,PAYLOAD,2023-12-20 12:04:02,14.98322052,0.0002921,70.0004,27.4028,254.647,105.4366,4.0121e-05,3.86e-06,0.0,0 STARLINK-5985,1 56451U 23064D   23354.50280276  .00000386  00000-0  40121-4 0  9992,2 56451  70.0004  27.4028 0002921 254.6470 105.4366 14.98322052 33882,6950.217,96.108,574.113,570.052,0.0
56451.0,STARLINK-5985,PAYLOAD,2023-12-21 04:05:22,14.98329436,0.0003071,69.9998,25.718,262.5316,97.5494,0.00010331,1.14e-05,0.0,0 STARLINK-5985,1 56451U 23064D   23355.17039816  .00001140  00000-0  10331-3 0  9996,2 56451  69.9998  25.7180 0003071 262.5316  97.5494 14.98329436 34343,6950.195,96.107,574.194,569.925,0.0
56451.0,STARLINK-5985,PAYLOAD,2023-12-21 12:06:02,14.98333483,0.0002978,69.9999,24.8766,259.522,100.5603,0.00014497,1.637e-05,0.0,0 STARLINK-5985,1 56451U 23064D   23355.50419416  .00001637  00000-0  14497-3 0  9999,2 56451  69.9999  24.8766 0002978 259.5220 100.5603 14.98333483 34039,6950.182,96.107,574.117,569.977,0.0
56451.0,STARLINK-5985,PAYLOAD,2023-12-22 04:07:23,14.98329056,0.0002555,70.0009,23.1942,254.5944,105.4933,6.1389e-05,6.4e-06,0.0,0 STARLINK-5985,1 56451U 23064D   23356.17179957  .00000640  00000-0  61389-4 0  9992,2 56451  70.0009  23.1942 0002555 254.5944 105.4933 14.98329056 34492,6950.196,96.107,573.837,570.285,0.0
56451.0,STARLINK-5985,PAYLOAD,2023-12-22 12:08:04,14.98327509,0.0002531,70.0006,22.3518,255.1328,104.9551,5.3193e-05,5.42e-06,0.0,0 STARLINK-5985,1 56451U 23064D   23356.50560188  .00000542  00000-0  53193-4 0  9994,2 56451  70.0006  22.3518 0002531 255.1328 104.9551 14.98327509 34183,6950.201,96.107,573.825,570.306,0.0
56451.0,STARLINK-5985,PAYLOAD,2023-12-23 04:09:24,14.9838998,0.0002135,70.0006,20.6687,263.979,96.1126,-0.0010396,-0.00012494,0.0,0 STARLINK-5985,1 56451U 23064D   23357.17319721 -.00012494  00000-0 -10396-2 0  9990,2 56451  70.0006  20.6687 0002135 263.9790  96.1126 14.98389980 34643,6950.007,96.103,573.356,570.389,0.0
56451.0,STARLINK-5985,PAYLOAD,2023-12-23 12:10:04,14.98379962,0.0002039,70.0004,19.8264,257.0923,103.0009,-0.00095962,-0.00011538,0.0,0 STARLINK-5985,1 56451U 23064D   23357.50699159 -.00011538  00000-0 -95962-3 0  9994,2 56451  70.0004  19.8264 0002039 257.0923 103.0009 14.98379962 34330,6950.038,96.104,573.321,570.486,0.0
56451.0,STARLINK-5985,PAYLOAD,2023-12-24 04:11:25,14.98318048,0.0002709,69.9996,18.1414,259.4957,100.5897,0.00017373,1.98e-05,0.0,0 STARLINK-5985,1 56451U 23064D   23358.17460233  .00001980  00000-0  17373-3 0  9995,2 56451  69.9996  18.1414 0002709 259.4957 100.5897 14.98318048 34798,6950.23,96.108,573.978,570.212,0.0
56451.0,STARLINK-5985,PAYLOAD,2023-12-24 10:35:57,14.98325522,0.000241,70.0011,17.4697,250.4888,109.6011,3.8594e-05,3.68e-06,0.0,0 STARLINK-5985,1 56451U 23064D   23358.44164281  .00000368  00000-0  38594-4 0  9997,2 56451  70.0011  17.4697 0002410 250.4888 109.6011 14.98325522 34475,6950.207,96.107,573.747,570.397,0.0
56451.0,STARLINK-5985,PAYLOAD,2023-12-25 04:13:26,14.98330757,0.0002687,70.0002,15.6188,250.5519,109.535,6.6253e-05,6.98e-06,0.0,0 STARLINK-5985,1 56451U 23064D   23359.17599825  .00000698  00000-0  66253-4 0  9993,2 56451  70.0002  15.6188 0002687 250.5519 109.5350 14.98330757 34941,6950.191,96.107,573.923,570.188,0.0
56451.0,STARLINK-5985,PAYLOAD,2023-12-25 10:37:58,14.98326255,0.0002786,70.0,14.945,253.5166,106.5687,1.0078e-05,2.7e-07,0.0,0 STARLINK-5985,1 56451U 23064D   23359.44304262  .00000027  00000-0  10078-4 0  9992,2 56451  70.0000  14.9450 0002786 253.5166 106.5687 14.98326255 34627,6950.204,96.107,574.006,570.133,0.0
56451.0,STARLINK-5985,PAYLOAD,2023-12-26 04:15:27,14.98325899,0.0002851,69.9999,13.0919,254.1938,105.8907,-5.0818e-05,-6.99e-06,0.0,0 STARLINK-5985,1 56451U 23064D   23360.17740484 -.00000699  00000-0 -50818-4 0  9997,2 56451  69.9999  13.0919 0002851 254.1938 105.8907 14.98325899 35090,6950.206,96.107,574.052,570.089,0.0
56451.0,STARLINK-5985,PAYLOAD,2023-12-26 10:39:59,14.98330208,0.0002697,70.0007,12.4203,254.4815,105.6047,3.8913e-05,3.71e-06,0.0,0 STARLINK-5985,1 56451U 23064D   23360.44444001  .00000371  00000-0  38913-4 0  9990,2 56451  70.0007  12.4203 0002697 254.4815 105.6047 14.98330208 34774,6950.192,96.107,573.932,570.183,0.0
56451.0,STARLINK-5985,PAYLOAD,2023-12-27 10:42:00,14.98326733,0.0002818,70.0004,9.8947,259.8095,100.2746,4.1738e-05,4.05e-06,0.0,0 STARLINK-5985,1 56451U 23064D   23361.44584106  .00000405  00000-0  41738-4 0  9999,2 56451  70.0004   9.8947 0002818 259.8095 100.2746 14.98326733 35282,6950.203,96.107,574.027,570.109,0.0
56451.0,STARLINK-5985,PAYLOAD,2023-12-28 10:44:01,14.98326252,0.0002765,70.0003,7.3692,263.651,96.4334,3.3421e-05,3.06e-06,0.0,0 STARLINK-5985,1 56451U 23064D   23362.44724352  .00000306  00000-0  33421-4 0  9999,2 56451  70.0003   7.3692 0002765 263.6510  96.4334 14.98326252 35439,6950.204,96.107,573.991,570.148,0.0
56451.0,STARLINK-5985,PAYLOAD,2023-12-29 10:46:02,14.98332098,0.0002736,70.0001,4.8433,270.6268,89.4577,4.7218e-05,4.7e-06,0.0,0 STARLINK-5985,1 56451U 23064D   23363.44863863  .00000470  00000-0  47218-4 0  9992,2 56451  70.0001   4.8433 0002736 270.6268  89.4577 14.98332098 35580,6950.186,96.107,573.953,570.15,0.0
56451.0,STARLINK-5985,PAYLOAD,2023-12-30 10:48:03,14.98332828,0.0002728,70.0,2.3182,268.9234,91.1613,4.4877e-05,4.43e-06,0.0,0 STARLINK-5985,1 56451U 23064D   23364.45003674  .00000443  00000-0  44877-4 0  9998,2 56451  70.0000   2.3182 0002728 268.9234  91.1613 14.98332828 35736,6950.184,96.107,573.945,570.153,0.0
56451.0,STARLINK-5985,PAYLOAD,2023-12-31 02:49:24,14.98328392,0.0002634,70.0001,0.6351,262.0823,98.0037,-4.0374e-05,-5.75e-06,0.0,0 STARLINK-5985,1 56451U 23064D   23365.11764109 -.00000575  00000-0 -40374-4 0  9995,2 56451  70.0001   0.6351 0002634 262.0823  98.0037 14.98328392 35839,6950.198,96.107,573.894,570.232,0.0
56451.0,STARLINK-5985,PAYLOAD,2023-12-31 09:13:56,14.98328539,0.0002947,69.9996,359.9605,273.1526,86.9296,-3.4236e-05,-5.01e-06,0.0,0 STARLINK-5985,1 56451U 23064D   23365.38468112 -.00000501  00000-0 -34236-4 0  9998,2 56451  69.9996 359.9605 0002947 273.1526  86.9296 14.98328539 35512,6950.197,96.107,574.111,570.014,0.0
56451.0,STARLINK-5985,PAYLOAD,2024-01-01 02:51:25,14.98330107,0.0002958,69.9995,358.1095,270.3442,89.7378,-2.8851e-05,-4.37e-06,0.0,0 STARLINK-5985,1 56451U 23064D   24001.11903995 -.00000437  00000-0 -28851-4 0  9994,2 56451  69.9995 358.1095 0002958 270.3442  89.7378 14.98330107 35980,6950.193,96.107,574.113,570.002,0.0
56451.0,STARLINK-5985,PAYLOAD,2024-01-01 09:15:57,14.98330736,0.0002698,70.0002,357.4368,263.8797,96.2055,-2.6314e-06,-1.24e-06,0.0,0 STARLINK-5985,1 56451U 23064D   24001.38607865 -.00000124  00000-0 -26314-5 0  9996,2 56451  70.0002 357.4368 0002698 263.8797  96.2055 14.98330736 35666,6950.191,96.107,573.931,570.18,0.0
56451.0,STARLINK-5985,PAYLOAD,2024-01-02 02:53:25,14.9832233,0.0002915,69.9997,355.5841,270.4213,89.6612,0.00012697,1.422e-05,0.0,0 STARLINK-5985,1 56451U 23064D   24002.12043966  .00001422  00000-0  12697-3 0  9992,2 56451  69.9997 355.5841 0002915 270.4213  89.6612 14.98322330 36139,6950.217,96.107,574.108,570.056,0.0
